[
    {
        "Altitude(m)": 604969.0891865656,
        "Argument of Periapsis(deg)": 0.0,
        "Eccentricity": 0.0,
        "Inclination(deg)": 60.0,
        "Latitude(deg)": -0.09270263239278156,
        "Longitude(deg)": -30.0224722409435,
        "Mean Anomaly(deg)": 0.0,
        "RAAN(deg)": 70.0,
        "Satellite Name": "Test1 308",
        "Satellite Number": 308,
        "Semi-Major Axis(m)": 6980739.136638005,
        "Time(s)": 0
    },
    {
        "Altitude(m)": 604900.0283927532,
        "Argument of Periapsis(deg)": 0.00010418945913296404,
        "Eccentricity": 0.0,
        "Inclination(deg)": 60.0,
        "Latitude(deg)": 0.4477237147833023,
        "Longitude(deg)": -29.754350112039155,
        "Mean Anomaly(deg)": 0.6201061454618275,
        "RAAN(deg)": 69.99957995086027,
        "Satellite Name": "Test1 308",
        "Satellite Number": 308,
        "Semi-Major Axis(m)": 6980739.136638005,
        "Time(s)": 10
    }
]